     2.10           N: GPS NAV DATA                         RINEX VERSION / TYPE
RTKCONV 2.4.3 b29                       20180511 181750 UTC PGM / RUN BY / DATE 
log: C:\Users\David\Desktop\2018-5-11.ubx                   COMMENT             
format: u-blox                                              COMMENT             
                                                            END OF HEADER       
26 18  5 11 16  0  0.0 -.152809079736E-03  .127329258248E-10  .000000000000E+00
     .300000000000E+02 -.533750000000E+02  .491341894934E-08  .207972528856E+01
    -.264495611191E-05  .279635877814E-02  .693276524544E-05  .515365320396E+04
     .489600000000E+06 -.316649675369E-07  .179100673739E+01  .149011611938E-06
     .955679595411E+00  .244968750000E+03  .119730230490E+00 -.830748889740E-08
    -.409302763389E-09  .100000000000E+01  .200000000000E+04  .000000000000E+00
     .200000000000E+01  .000000000000E+00  .745058059692E-08  .300000000000E+02
     .483426000000E+06  .400000000000E+01
23 18  5 11 16  0  0.0 -.217183958739E-03  .341060513165E-12  .000000000000E+00
     .330000000000E+02  .476875000000E+02  .474376902559E-08 -.104716044184E+01
     .266171991825E-05  .124729360687E-01  .113621354103E-04  .515380416298E+04
     .489600000000E+06  .288709998131E-06 -.299230703063E+00  .180676579475E-06
     .943922462205E+00  .146843750000E+03 -.236896260512E+01 -.813141013444E-08
     .283583240952E-09  .100000000000E+01  .200000000000E+04  .000000000000E+00
     .200000000000E+01  .000000000000E+00 -.200234353542E-07  .330000000000E+02
     .483426000000E+06  .400000000000E+01
 4 18  5 11 16  0  0.0  .600684434175E-04  .318323145621E-11  .000000000000E+00
     .190000000000E+02 -.525937500000E+02  .563559188788E-08  .147089230967E+01
    -.272318720818E-05  .985473708715E-02  .769086182117E-05  .515369604111E+04
     .489600000000E+06 -.232830643654E-06  .183756101557E+01  .875443220139E-07
     .978959446756E+00  .244750000000E+03  .921910559995E+00 -.808676541767E-08
    -.442161274935E-09  .100000000000E+01  .200000000000E+04  .000000000000E+00
     .280000000000E+01  .630000000000E+02 -.195577740669E-07  .190000000000E+02
     .483426000000E+06  .400000000000E+01
27 18  5 11 16  0  0.0  .369268003851E-03 -.682121026330E-12  .000000000000E+00
     .250000000000E+02  .229375000000E+02  .399445209925E-08  .273031098373E+00
     .121444463730E-05  .593012920581E-02  .105183571577E-04  .515368753433E+04
     .489600000000E+06  .428408384323E-07  .285248300589E+01  .122934579849E-06
     .977624905590E+00  .180781250000E+03  .411755740171E+00 -.786532762247E-08
     .525021869268E-10  .100000000000E+01  .200000000000E+04  .000000000000E+00
     .200000000000E+01  .000000000000E+00  .139698386192E-08  .250000000000E+02
     .483426000000E+06  .400000000000E+01
14 18  5 11 16  0  0.0 -.968170352280E-04 -.227373675443E-12  .000000000000E+00
     .300000000000E+02  .577500000000E+02  .442768443083E-08 -.111225177341E+00
     .295415520668E-05  .975401466712E-02  .110641121864E-04  .515376557732E+04
     .489600000000E+06 -.109896063805E-06 -.208121850368E+00  .184401869774E-06
     .961443628695E+00  .171125000000E+03 -.195692384150E+01 -.808176520939E-08
     .302512600864E-09  .100000000000E+01  .200000000000E+04  .000000000000E+00
     .200000000000E+01  .000000000000E+00 -.977888703346E-08  .300000000000E+02
     .483426000000E+06  .400000000000E+01
31 18  5 11 16  0  0.0  .122384168208E-03 -.261479726760E-11  .000000000000E+00
     .138000000000E+03  .442812500000E+02  .490306137504E-08 -.279460814388E+01
     .237300992012E-05  .874528847635E-02  .422447919846E-05  .515365257835E+04
     .489600000000E+06 -.165775418282E-06  .792059101515E+00  .372529029846E-08
     .963529271502E+00  .302500000000E+03 -.130319798537E+00 -.823391440416E-08
     .174292974288E-09  .100000000000E+01  .200000000000E+04  .000000000000E+00
     .200000000000E+01  .000000000000E+00 -.135041773319E-07  .138000000000E+03
     .483426000000E+06  .400000000000E+01
 9 18  5 11 16  0  0.0  .513534527272E-03  .795807864051E-12  .000000000000E+00
     .300000000000E+02  .351875000000E+02  .446518599292E-08  .410283611559E+00
     .173971056938E-05  .971039640717E-03  .115856528282E-04  .515363418770E+04
     .489600000000E+06  .149011611938E-07 -.297753037306E+00  .298023223877E-07
     .953096926187E+00  .146906250000E+03  .186432094422E+01 -.801069082028E-08
     .269296931584E-09  .100000000000E+01  .200000000000E+04  .000000000000E+00
     .200000000000E+01  .000000000000E+00  .931322574615E-09  .300000000000E+02
     .483426000000E+06  .400000000000E+01
 8 18  5 11 16  0  0.0 -.100899487734E-03 -.136424205266E-11  .000000000000E+00
     .105000000000E+03  .175625000000E+02  .414517266308E-08  .550080104176E+00
     .722706317902E-06  .348557822872E-02  .109542161226E-04  .515356704330E+04
     .489600000000E+06  .298023223877E-07  .284415571923E+01 -.204890966415E-07
     .969429783339E+00  .170531250000E+03 -.445290404407E+00 -.792283001767E-08
     .610739725475E-10  .100000000000E+01  .200000000000E+04  .000000000000E+00
     .280000000000E+01  .000000000000E+00  .512227416039E-08  .105000000000E+03
     .483426000000E+06  .400000000000E+01
29 18  5 11 16  0  0.0  .451736152172E-03 -.636646291241E-11  .000000000000E+00
     .230000000000E+02  .157812500000E+02  .374051295024E-08  .131961213395E+01
     .741332769394E-06  .754314125516E-03  .108201056719E-04  .515370399666E+04
     .489600000000E+06 -.484287738800E-07  .291699741670E+01 -.111758708954E-07
     .984185807906E+00  .184656250000E+03  .107623845050E+01 -.765889045210E-08
     .828605943335E-10  .100000000000E+01  .200000000000E+04  .000000000000E+00
     .200000000000E+01  .000000000000E+00 -.102445483208E-07  .230000000000E+02
     .483426000000E+06  .400000000000E+01
